{"type": "FeatureCollection", "features": [{"type": "Feature", "properties": {"norad_id": 28890, "name": "BEIJING 1", "group": "dmc", "lat": -14.867368183535397, "lon": 123.68117305452233, "alt_km": 694.7897678267009, "timestamp": "2025-12-19T22:41:52.045848+00:00", "meta": {"OBJECT_NAME": "BEIJING 1", "OBJECT_ID": "2005-043A", "EPOCH": "2025-12-19T19:29:03.770880", "MEAN_MOTION": 14.63373689, "ECCENTRICITY": 0.0015661, "INCLINATION": 98.2655, "RA_OF_ASC_NODE": 121.3354, "ARG_OF_PERICENTER": 120.3242, "MEAN_ANOMALY": 239.9511, "EPHEMERIS_TYPE": 0, "CLASSIFICATION_TYPE": "U", "NORAD_CAT_ID": 28890, "ELEMENT_SET_NO": 999, "REV_AT_EPOCH": 7441, "BSTAR": 0.00013101, "MEAN_MOTION_DOT": 6.29e-06, "MEAN_MOTION_DDOT": 0}, "tle": {"line1": "1 28890U 05043A   25353.81184920  .00000629  00000+0  13101-3 0  9995", "line2": "2 28890  98.2655 121.3354 0015661 120.3242 239.9511 14.63373689 74412"}}, "geometry": {"type": "Point", "coordinates": [123.68117305452233, -14.867368183535397]}}, {"type": "Feature", "properties": {"norad_id": 33320, "name": "HUANJING 1A (HJ-1A)", "group": "dmc", "lat": 8.462694335153657, "lon": 163.0896931508912, "alt_km": 633.3424156783431, "timestamp": "2025-12-19T22:41:52.045872+00:00", "meta": {"OBJECT_NAME": "HUANJING 1A (HJ-1A)", "OBJECT_ID": "2008-041A", "EPOCH": "2025-12-19T18:41:26.213568", "MEAN_MOTION": 14.83413363, "ECCENTRICITY": 0.0019654, "INCLINATION": 97.6535, "RA_OF_ASC_NODE": 341.7833, "ARG_OF_PERICENTER": 12.0503, "MEAN_ANOMALY": 348.1178, "EPHEMERIS_TYPE": 0, "CLASSIFICATION_TYPE": "U", "NORAD_CAT_ID": 33320, "ELEMENT_SET_NO": 999, "REV_AT_EPOCH": 93180, "BSTAR": 9.4393e-05, "MEAN_MOTION_DOT": 7.26e-06, "MEAN_MOTION_DDOT": 0}, "tle": {"line1": "1 33320U 08041A   25353.77877562  .00000726  00000+0  94393-4 0  9997", "line2": "2 33320  97.6535 341.7833 0019654  12.0503 348.1178 14.83413363931802"}}, "geometry": {"type": "Point", "coordinates": [163.0896931508912, 8.462694335153657]}}, {"type": "Feature", "properties": {"norad_id": 33321, "name": "HUANJING 1B (HJ-1B)", "group": "dmc", "lat": 16.93602729102009, "lon": -16.72097508864322, "alt_km": 599.3384846043909, "timestamp": "2025-12-19T22:41:52.045887+00:00", "meta": {"OBJECT_NAME": "HUANJING 1B (HJ-1B)", "OBJECT_ID": "2008-041B", "EPOCH": "2025-12-19T19:22:56.416224", "MEAN_MOTION": 14.82838657, "ECCENTRICITY": 0.0038024, "INCLINATION": 97.6394, "RA_OF_ASC_NODE": 345.4894, "ARG_OF_PERICENTER": 53.4452, "MEAN_ANOMALY": 307.0252, "EPHEMERIS_TYPE": 0, "CLASSIFICATION_TYPE": "U", "NORAD_CAT_ID": 33321, "ELEMENT_SET_NO": 999, "REV_AT_EPOCH": 93182, "BSTAR": 0.00013557, "MEAN_MOTION_DOT": 1.059e-05, "MEAN_MOTION_DDOT": 0}, "tle": {"line1": "1 33321U 08041B   25353.80759741  .00001059  00000+0  13557-3 0  9992", "line2": "2 33321  97.6394 345.4894 0038024  53.4452 307.0252 14.82838657931823"}}, "geometry": {"type": "Point", "coordinates": [-16.72097508864322, 16.93602729102009]}}, {"type": "Feature", "properties": {"norad_id": 33446, "name": "YAOGAN-4", "group": "dmc", "lat": -72.52463228012795, "lon": -49.78590692463872, "alt_km": 619.1162794515731, "timestamp": "2025-12-19T22:41:52.045900+00:00", "meta": {"OBJECT_NAME": "YAOGAN-4", "OBJECT_ID": "2008-061A", "EPOCH": "2025-12-19T10:04:29.303904", "MEAN_MOTION": 14.8270055, "ECCENTRICITY": 0.0013167, "INCLINATION": 97.919, "RA_OF_ASC_NODE": 283.4536, "ARG_OF_PERICENTER": 299.8838, "MEAN_ANOMALY": 60.1067, "EPHEMERIS_TYPE": 0, "CLASSIFICATION_TYPE": "U", "NORAD_CAT_ID": 33446, "ELEMENT_SET_NO": 999, "REV_AT_EPOCH": 91902, "BSTAR": 0.00012167, "MEAN_MOTION_DOT": 9.29e-06, "MEAN_MOTION_DDOT": 0}, "tle": {"line1": "1 33446U 08061A   25353.41978361  .00000929  00000+0  12167-3 0  9991", "line2": "2 33446  97.9190 283.4536 0013167 299.8838  60.1067 14.82700550919026"}}, "geometry": {"type": "Point", "coordinates": [-49.78590692463872, -72.52463228012795]}}, {"type": "Feature", "properties": {"norad_id": 35681, "name": "DEIMOS-1", "group": "dmc", "lat": -34.77928202024675, "lon": -31.188497894969046, "alt_km": 653.0820925290818, "timestamp": "2025-12-19T22:41:52.045911+00:00", "meta": {"OBJECT_NAME": "DEIMOS-1", "OBJECT_ID": "2009-041A", "EPOCH": "2025-12-19T18:28:10.900704", "MEAN_MOTION": 14.74964491, "ECCENTRICITY": 0.0002619, "INCLINATION": 97.7142, "RA_OF_ASC_NODE": 154.0452, "ARG_OF_PERICENTER": 68.2705, "MEAN_ANOMALY": 291.8784, "EPHEMERIS_TYPE": 0, "CLASSIFICATION_TYPE": "U", "NORAD_CAT_ID": 35681, "ELEMENT_SET_NO": 999, "REV_AT_EPOCH": 88043, "BSTAR": 0.00014, "MEAN_MOTION_DOT": 8.94e-06, "MEAN_MOTION_DDOT": 0}, "tle": {"line1": "1 35681U 09041A   25353.76957061  .00000894  00000+0  14000-3 0  9994", "line2": "2 35681  97.7142 154.0452 0002619  68.2705 291.8784 14.74964491880433"}}, "geometry": {"type": "Point", "coordinates": [-31.188497894969046, -34.77928202024675]}}, {"type": "Feature", "properties": {"norad_id": 35683, "name": "UK-DMC 2", "group": "dmc", "lat": -66.35650261568334, "lon": -69.73893206662738, "alt_km": 651.3206757437574, "timestamp": "2025-12-19T22:41:52.045923+00:00", "meta": {"OBJECT_NAME": "UK-DMC 2", "OBJECT_ID": "2009-041C", "EPOCH": "2025-12-19T18:19:27.982848", "MEAN_MOTION": 14.75637614, "ECCENTRICITY": 0.0001501, "INCLINATION": 97.856, "RA_OF_ASC_NODE": 128.4678, "ARG_OF_PERICENTER": 94.0498, "MEAN_ANOMALY": 266.0883, "EPHEMERIS_TYPE": 0, "CLASSIFICATION_TYPE": "U", "NORAD_CAT_ID": 35683, "ELEMENT_SET_NO": 999, "REV_AT_EPOCH": 88010, "BSTAR": 0.00016543, "MEAN_MOTION_DOT": 1.08e-05, "MEAN_MOTION_DDOT": 0}, "tle": {"line1": "1 35683U 09041C   25353.76351832  .00001080  00000+0  16543-3 0  9992", "line2": "2 35683  97.8560 128.4678 0001501  94.0498 266.0883 14.75637614880103"}}, "geometry": {"type": "Point", "coordinates": [-69.73893206662738, -66.35650261568334]}}, {"type": "Feature", "properties": {"norad_id": 40715, "name": "DMC3-FM1", "group": "dmc", "lat": -10.695440553057411, "lon": 39.41683387485471, "alt_km": 617.0727979172725, "timestamp": "2025-12-19T22:41:52.045934+00:00", "meta": {"OBJECT_NAME": "DMC3-FM1", "OBJECT_ID": "2015-032A", "EPOCH": "2025-12-19T18:36:29.979072", "MEAN_MOTION": 14.85449929, "ECCENTRICITY": 0.000426, "INCLINATION": 97.669, "RA_OF_ASC_NODE": 220.711, "ARG_OF_PERICENTER": 292.5462, "MEAN_ANOMALY": 67.5302, "EPHEMERIS_TYPE": 0, "CLASSIFICATION_TYPE": "U", "NORAD_CAT_ID": 40715, "ELEMENT_SET_NO": 999, "REV_AT_EPOCH": 56327, "BSTAR": 3.7201e-05, "MEAN_MOTION_DOT": 2.69e-06, "MEAN_MOTION_DDOT": 0}, "tle": {"line1": "1 40715U 15032A   25353.77534698  .00000269  00000+0  37201-4 0  9998", "line2": "2 40715  97.6690 220.7110 0004260 292.5462  67.5302 14.85449929563272"}}, "geometry": {"type": "Point", "coordinates": [39.41683387485471, -10.695440553057411]}}, {"type": "Feature", "properties": {"norad_id": 40716, "name": "DMC3-FM2", "group": "dmc", "lat": 69.136377678505, "lon": -158.39655214000607, "alt_km": 607.7204059724972, "timestamp": "2025-12-19T22:41:52.045945+00:00", "meta": {"OBJECT_NAME": "DMC3-FM2", "OBJECT_ID": "2015-032B", "EPOCH": "2025-12-19T17:31:52.902624", "MEAN_MOTION": 14.85453343, "ECCENTRICITY": 0.0004799, "INCLINATION": 97.6749, "RA_OF_ASC_NODE": 222.1166, "ARG_OF_PERICENTER": 298.9255, "MEAN_ANOMALY": 61.1479, "EPHEMERIS_TYPE": 0, "CLASSIFICATION_TYPE": "U", "NORAD_CAT_ID": 40716, "ELEMENT_SET_NO": 999, "REV_AT_EPOCH": 56326, "BSTAR": 9.8475e-05, "MEAN_MOTION_DOT": 7.98e-06, "MEAN_MOTION_DDOT": 0}, "tle": {"line1": "1 40716U 15032B   25353.73047341  .00000798  00000+0  98475-4 0  9996", "line2": "2 40716  97.6749 222.1166 0004799 298.9255  61.1479 14.85453343563261"}}, "geometry": {"type": "Point", "coordinates": [-158.39655214000607, 69.136377678505]}}, {"type": "Feature", "properties": {"norad_id": 40717, "name": "DMC3-FM3", "group": "dmc", "lat": -44.893290697826394, "lon": -128.31101591504788, "alt_km": 616.1630632902388, "timestamp": "2025-12-19T22:41:52.045955+00:00", "meta": {"OBJECT_NAME": "DMC3-FM3", "OBJECT_ID": "2015-032C", "EPOCH": "2025-12-19T19:40:06.177216", "MEAN_MOTION": 14.85441888, "ECCENTRICITY": 0.0004107, "INCLINATION": 97.6806, "RA_OF_ASC_NODE": 223.8404, "ARG_OF_PERICENTER": 301.0961, "MEAN_ANOMALY": 58.9851, "EPHEMERIS_TYPE": 0, "CLASSIFICATION_TYPE": "U", "NORAD_CAT_ID": 40717, "ELEMENT_SET_NO": 999, "REV_AT_EPOCH": 56328, "BSTAR": 0.00010077, "MEAN_MOTION_DOT": 8.17e-06, "MEAN_MOTION_DDOT": 0}, "tle": {"line1": "1 40717U 15032C   25353.81951594  .00000817  00000+0  10077-3 0  9993", "line2": "2 40717  97.6806 223.8404 0004107 301.0961  58.9851 14.85441888563283"}}, "geometry": {"type": "Point", "coordinates": [-128.31101591504788, -44.893290697826394]}}]}